#dP2020  6 25  0  0  0.00000000      73   u+U IGS14 FIT  GFZ                    
## 2111 345600.00000000   300.00000000 59025 0.0000000000000                    
+  123   C01C02C03C04C05C06C07C08C09C10C11C12C13C14C16C19C20                    
+        C21C22C23C24C25C26C27C28C29C30C32C33C34C35C36C37C38                    
+        C39C40C41C42C43C44C45C46C60E01E02E03E04E05E07E08E09                    
+        E11E12E13E14E15E18E19E21E24E25E26E27E30E31E33E36G01                    
+        G02G03G04G05G06G07G08G09G10G11G12G13G14G15G16G17G18                    
+        G19G20G21G22G24G25G26G27G28G29G30G31G32J01J02J03J07                    
+        R01R02R03R04R05R07R08R09R11R12R13R14R15R16R17R18R19                    
+        R20R21R23R24 00 00 00 00 00 00 00 00 00 00 00 00 00                    
++        10 10  0 10 10 10 10 10 10 10  6  8 10  8 10 10  9                    
++         8  8 10  8  6  9  7  7  7  7  8  7  6  8  8  8 10                    
++        10 10 10 10  8 10 10 10 10  8  5  7  8  6  5  7  6                    
++         5  6  6  6  6  5  6  8  6  6  6  5  5  7  7  5  6                    
++         7  5  5  5  5  6  5  5  6  7  6  6  6  6  6  5  9                    
++         5  9  7  6  5  5  6  6  5  8  5  6  5 10 10 10 10                    
++        10  6  7  6  7  8  8  6  5  6 10  8  6 10  9  7 10                    
++         7  6  6  8  0  0  0  0  0  0  0  0  0  0  0  0  0                    
%c M  cc GPS ccc cccc cccc cccc cccc ccccc ccccc ccccc ccccc                    
%c cc cc ccc ccc cccc cccc cccc cccc ccccc ccccc ccccc ccccc                    
%f  1.2500000  1.025000000  0.00000000000  0.000000000000000                    
%f  0.0000000  0.000000000  0.00000000000  0.000000000000000                    
%i    0    0    0    0      0      0      0      0         0                    
%i    0    0    0    0      0      0      0      0         0                    
/* PCV:IGS14_2108 OL/AL:FES2004  NONE     YN CLK:CoN ORB:CoN                    
/*     GeoForschungsZentrum Potsdam                                             
/*                                                                              
/*                                                                              
*  2020  6 25  0 45  0.00000000                                                 
PC01 -34339.311209  24499.291151    546.102700   -387.050447                    
PC02   4382.009001  41906.372064  -1385.130847    259.831653                    
PC03 -14670.085287  39495.544317   -537.935185    849.416844                    
PC04 -39589.792060  14486.666800    380.088357   -146.409508                    
PC05  21884.185007  36005.318897  -1103.980625   -516.124381                    
PC06  -8595.985588  34760.863488 -21520.619072    762.752010                    
PC07 -15428.556212  22626.330958  32175.596497     19.084811                    
PC08 -24460.819639  32501.467243 -11650.557094   -332.561115                    
PC09   1735.721495  41257.593493  -7104.394992    632.642663                    
PC10   1536.848243  26921.854701  32654.706857   -253.549877                    
PC11 -13676.205985  14203.321994  19820.166247   -449.655769                    
PC12 -14694.279141  -7027.718494  22680.698334    411.121876                    
PC13 -11852.954299  32948.291862 -23599.531796    508.489184                    
PC14 -19007.605220   4677.645137 -19833.822647    577.754769                    
PC16  -6228.251061  36433.791173 -20039.443885   -610.802286                    
PC19  10983.758199 -11851.719415  22783.220523    454.679502                    
PC20  23701.660549   2514.623706  14564.452569   -847.256742                    
PC21 -22699.074446 -15984.876895   2698.296630   -571.402376                    
PC22  -8352.878744 -19669.867380  17936.143005   -780.581339                    
PC23  -2058.220017  18107.248088  21140.332126   -849.461323                    
PC24 -25681.780087   6579.715810  -8737.746327   -782.761101                    
PC25 -19022.280927  18229.423383   9218.947507   -663.473351                    
PC26 -17294.436918  -7131.947455 -20717.682942    730.611621                    
PC27  12044.244693  17080.200323 -18502.478879    353.243973                    
PC28   1118.584528  27681.789789  -3385.762365   -208.379936                    
PC29   9572.107360 -22402.110952 -13623.086629    247.060362                    
PC30  15772.145810  -3674.560341 -22733.608461    336.944329                    
PC32  22868.068260  15788.922207  -2622.549895   -876.936586                    
PC33 -10954.074295  11897.423177 -22729.721682   -807.745229                    
PC34 -15779.115612   4154.204023  22626.129820   -842.392324                    
PC35  -1940.669107 -27672.937071   3186.608210   -780.891926                    
PC36  19623.548406 -17687.798947  -8977.742443   -853.134172                    
PC37  16542.107184   8053.184832  21002.823542   -856.596624                    
PC38 -21111.421201  33753.415326 -14070.655660     85.318938                    
PC39  -2781.015139  37441.727588 -19065.287603     18.171333                    
PC40  -5855.185424  21328.571629  35902.235887     55.571400                    
PC41   8281.921441  19641.133510 -17959.181476   -231.227976                    
PC42 -23872.109015  -2925.056083 -14092.815867 999999.999999                    
PC43  -9924.344344  22116.229010  13798.298451   -253.449313                    
PC44 -12590.913160 -16911.274249  18289.797304   -290.329592                    
PC45   2064.202049 -18011.039843 -21202.442845 999999.999999                    
PC46  25673.970377  -7072.755504   8312.964240    768.252028                    
PC60   7330.796398  41502.154894   1284.346879     -0.493576                    
PE01 -17408.137213  13927.983007  19470.096145   -884.728145                    
PE02  17317.481415 -13960.917422 -19526.223970    142.771319                    
PE03   7098.698921 -18099.833758  22321.267400   -313.510031                    
PE04   9304.556406  26468.154887  -9432.423043   -552.675505                    
PE05  19509.930337    974.904118  22249.348893   -368.766525                    
PE07 -20428.195667 -19339.829752  -9176.103657   -400.172220                    
PE08  -9664.124423 -26380.254195   9302.093131   6158.985901                    
PE09  20553.093069  19169.983122   9329.608929   6017.661716                    
PE11  12600.336789  10893.836052 -24477.554662   3676.428817                    
PE12  -2102.423131  25739.973075 -14449.832343   5738.579570                    
PE13 -12411.471965 -11074.923422  24484.357053    401.848887                    
PE14  19104.082173  -7950.967137 -24946.168558  -1061.387986                    
PE15   1887.325137 -25661.135177  14639.374341    862.328467                    
PE18 -11105.949849  12821.785068  16812.743284  -1163.029877                    
PE19  -8638.055870  16365.664961 -23092.075689     11.485460                    
PE21 -29139.976044   3908.751490   3397.992497   -606.458198                    
PE24  23814.294408   8933.516603  15119.417107   5384.982179                    
PE25  29174.299356  -3817.963722  -3259.008972   -512.650457                    
PE26 -19646.776802  10298.387452  19598.418189   3034.522687                    
PE27 -24058.694656  -8624.479107 -14927.506350    191.329210                    
PE30  -4336.144348 -16167.160408 -24420.690202   3799.329885                    
PE31   4877.703375  16036.340778  24404.993592   -472.987433                    
PE33 -15085.791516  25175.464046   3813.500283   -465.695239                    
PE36  19431.285083 -10025.604687 -19955.130150    542.595583                    
PG01 -13807.580755  21615.190130  -6403.010248     15.962944                    
PG02  19977.880816 -10705.826148 -13167.938744   -477.341453                    
PG03  -8547.480350  13308.209980 -21383.388741   -219.555123                    
PG04  -2037.476045  23460.136498 -12240.951112   -106.691908                    
PG05  24627.943773  -2686.891637   9703.534422    -15.322973                    
PG06  16720.681808   1905.780124 -20506.889079   -293.795835                    
PG07   1839.861883  18310.470880  19285.490542   -312.236373                    
PG08  -9360.569116  14753.352713  19937.174221    -38.707992                    
PG09   7452.898269  25422.201195  -1830.300725   -242.297248                    
PG10 -21648.177608 -11740.247774  10342.338710   -381.070159                    
PG11 -12092.546070  22386.952909   7675.719658   -239.337919                    
PG12   9172.375549 -12604.699911 -21718.933792    102.051360                    
PG13  13925.474387  -6334.167057  21585.067687     21.160564                    
PG14 -15822.541571  -9838.015707 -18647.577775     -3.449052                    
PG15   8146.825654 -16303.725789  18878.213240   -221.971875                    
PG16 -23753.607700   1279.457424  12048.500182   -174.605655                    
PG17  13852.370221  18269.817311 -13025.510110    285.946899                    
PG18   -910.914856 -18406.945811  19105.714345    229.367138                    
PG19  15390.963629  10896.064686 -19020.609593   -140.715413                    
PG20 -12164.228460 -14604.962983  18560.089858    527.443957                    
PG21 -12180.054355  -9970.407662  22170.551048     15.761815                    
PG22 -16290.194366  11163.587150 -17487.006846   -776.124062                    
PG24  13834.220826 -22139.072029  -3849.168144    -14.785743                    
PG25  -2543.120237 -15739.936489 -21519.544025     16.407058                    
PG26 -26258.042265  -4735.850128   -309.109320    231.557018                    
PG27 -14535.508786   3032.580604  21889.928456   -329.235923                    
PG28  21178.397727  13182.689512   9475.663960    705.638515                    
PG29  -2692.123947 -25801.360180  -5664.955312   -135.533012                    
PG30  11469.398134  10754.274950  21452.094625   -248.683301                    
PG31 -18250.063466   -624.940264 -19480.729710    -51.339866                    
PG32 -15718.763205 -16576.817704 -13588.208042    305.976909                    
PJ01 -24474.260967  16873.303392 -25288.592026   -282.157316                    
PJ02 -31252.795047  25117.945817  17745.292893     -0.722907                    
PJ03 -26210.370502  27040.103516  23934.413928     -4.490435                    
PJ07 -25393.865266  33656.149357     -7.174635     -0.017509                    
PR01  19747.102734   8306.035996  13866.941020     63.576690                    
PR02   6795.284354  -8579.855733  23085.871108    433.202108                    
PR03  -8549.793445 -18000.113988  15998.229958     17.373897                    
PR04 -18946.513806 -17080.122365    -51.044253     53.957804                    
PR05 -18611.438159  -6674.175684 -16112.971987     52.921605                    
PR07   9020.428479  18108.347640 -15471.228254    -37.870243                    
PR08  18969.008727  17043.931078    203.966190    -53.056262                    
PR09 -15877.855766  13025.385569  15095.227476    139.882126                    
PR11  16089.314324   4563.269670  19297.299523    -28.269344                    
PR12  24321.427109  -5046.682585   5795.428984    141.808385                    
PR13  19006.378673 -12310.106469 -11764.153553    -40.412587                    
PR14   2483.666592 -12072.275332 -22321.901795     52.646593                    
PR15 -15255.799016  -4969.350582 -19806.392093    106.908067                    
PR16 -24358.421274   5850.266190  -5145.093758     -4.352300                    
PR17   2857.472767 -24730.645559   5472.540034    335.850740                    
PR18  -5473.952208 -15652.879377  19411.086953     40.011951                    
PR19 -10857.571098   1100.045528  23049.449032    -99.444462                    
PR20 -10550.694550  19655.533603  12330.599666   -415.108522                    
PR21  -2458.038678  24576.039628  -6436.210908   -133.683186                    
PR23  11620.807485  -8711.433044 -20983.838070    314.380816                    
PR24  10455.376051 -20178.480308 -11561.394902      3.893745                    
EOF
